[{"OBJECT_NAME":"OBJECT AS","OBJECT_ID":"2023-085AS","EPOCH":"2026-03-09T22:43:55.521696","MEAN_MOTION":15.33336233,"ECCENTRICITY":0.00083243,"INCLINATION":97.4812,"RA_OF_ASC_NODE":180.8852,"ARG_OF_PERICENTER":80.6036,"MEAN_ANOMALY":279.6147,"EPHEMERIS_TYPE":0,"CLASSIFICATION_TYPE":"U","NORAD_CAT_ID":57044,"ELEMENT_SET_NO":999,"REV_AT_EPOCH":15162,"BSTAR":0.00067677795,"MEAN_MOTION_DOT":0.00021782,"MEAN_MOTION_DDOT":0},{"OBJECT_NAME":"STARLINK-34237","OBJECT_ID":"2025-113AA","EPOCH":"2026-03-09T11:23:47.980896","MEAN_MOTION":15.30196237,"ECCENTRICITY":0.00011886,"INCLINATION":53.1588,"RA_OF_ASC_NODE":92.021,"ARG_OF_PERICENTER":74.795,"MEAN_ANOMALY":285.3182,"EPHEMERIS_TYPE":0,"CLASSIFICATION_TYPE":"U","NORAD_CAT_ID":64194,"ELEMENT_SET_NO":999,"REV_AT_EPOCH":4499,"BSTAR":0.0010943383,"MEAN_MOTION_DOT":0.00032189,"MEAN_MOTION_DDOT":0}]
